{
  "links" : {
    "next" : "https://api.nasa.gov/neo/rest/v1/neo/browse?page=3&size=20&api_key=jqAGvNAwUIBu4fl9FSOjdm3V4F7hIglRzI6pdX9d",
    "prev" : "https://api.nasa.gov/neo/rest/v1/neo/browse?page=1&size=20&api_key=jqAGvNAwUIBu4fl9FSOjdm3V4F7hIglRzI6pdX9d",
    "self" : "https://api.nasa.gov/neo/rest/v1/neo/browse?page=2&size=20&api_key=jqAGvNAwUIBu4fl9FSOjdm3V4F7hIglRzI6pdX9d"
  },
  "page" : {
    "size" : 20,
    "total_elements" : 20750,
    "total_pages" : 1038,
    "number" : 2
  },
  "near_earth_objects" : [ {
    "links" : {
      "self" : "https://api.nasa.gov/neo/rest/v1/neo/3014162?api_key=jqAGvNAwUIBu4fl9FSOjdm3V4F7hIglRzI6pdX9d"
    },
    "neo_reference_id" : "3014162",
    "name" : "(1998 QV3)",
    "designation" : "1998 QV3",
    "nasa_jpl_url" : "http://ssd.jpl.nasa.gov/sbdb.cgi?sstr=3014162",
    "absolute_magnitude_h" : 20.5,
    "estimated_diameter" : {
      "kilometers" : {
        "estimated_diameter_min" : 0.2111324448,
        "estimated_diameter_max" : 0.4721064988
      },
      "meters" : {
        "estimated_diameter_min" : 211.1324447897,
        "estimated_diameter_max" : 472.1064988055
      },
      "miles" : {
        "estimated_diameter_min" : 0.1311915784,
        "estimated_diameter_max" : 0.2933532873
      },
      "feet" : {
        "estimated_diameter_min" : 692.6917701639,
        "estimated_diameter_max" : 1548.9058855411
      }
    },
    "is_potentially_hazardous_asteroid" : false,
    "close_approach_data" : [ {
      "close_approach_date" : "1991-08-21",
      "epoch_date_close_approach" : 682758000000,
      "relative_velocity" : {
        "kilometers_per_second" : "17.7960371573",
        "kilometers_per_hour" : "64065.7337662166",
        "miles_per_hour" : "39807.955517125"
      },
      "miss_distance" : {
        "astronomical" : "0.471244036",
        "lunar" : "183.3139343262",
        "kilometers" : "70497104",
        "miles" : "43804872"
      },
      "orbiting_body" : "Earth"
    }, {
      "close_approach_date" : "1998-09-08",
      "epoch_date_close_approach" : 905238000000,
      "relative_velocity" : {
        "kilometers_per_second" : "9.7513600748",
        "kilometers_per_hour" : "35104.8962694046",
        "miles_per_hour" : "21812.8173513976"
      },
      "miss_distance" : {
        "astronomical" : "0.1698062952",
        "lunar" : "66.054649353",
        "kilometers" : "25402662",
        "miles" : "15784482"
      },
      "orbiting_body" : "Earth"
    }, {
      "close_approach_date" : "2005-09-23",
      "epoch_date_close_approach" : 1127458800000,
      "relative_velocity" : {
        "kilometers_per_second" : "10.0116998205",
        "kilometers_per_hour" : "36042.1193537996",
        "miles_per_hour" : "22395.1713284762"
      },
      "miss_distance" : {
        "astronomical" : "0.3682258157",
        "lunar" : "143.2398376465",
        "kilometers" : "55085800",
        "miles" : "34228728"
      },
      "orbiting_body" : "Earth"
    } ],
    "orbital_data" : {
      "orbit_id" : "11",
      "orbit_determination_date" : "2017-04-06 09:17:44",
      "first_observation_date" : "1998-08-17",
      "last_observation_date" : "1998-10-13",
      "data_arc_in_days" : 57,
      "observations_used" : 63,
      "orbit_uncertainty" : "7",
      "minimum_orbit_intersection" : ".163519",
      "jupiter_tisserand_invariant" : "3.358",
      "epoch_osculation" : "2458600.5",
      "eccentricity" : ".5101432950479496",
      "semi_major_axis" : "2.317760714872633",
      "inclination" : "14.22402963352226",
      "ascending_node_longitude" : "332.7389586752146",
      "orbital_period" : "1288.846875621786",
      "perihelion_distance" : "1.135370626654817",
      "perihelion_argument" : "33.59191249680705",
      "aphelion_distance" : "3.50015080309045",
      "perihelion_time" : "2458808.733408499871",
      "mean_anomaly" : "301.8363589361317",
      "mean_motion" : ".2793194496641216",
      "equinox" : "J2000",
      "orbit_class" : {
        "orbit_class_type" : "AMO",
        "orbit_class_range" : "1.017 AU < q (perihelion) < 1.3 AU",
        "orbit_class_description" : "Near-Earth asteroid orbits similar to that of 1221 Amor"
      }
    },
    "is_sentry_object" : false
  }, {
    "links" : {
      "self" : "https://api.nasa.gov/neo/rest/v1/neo/3092188?api_key=jqAGvNAwUIBu4fl9FSOjdm3V4F7hIglRzI6pdX9d"
    },
    "neo_reference_id" : "3092188",
    "name" : "(1998 QH28)",
    "designation" : "1998 QH28",
    "nasa_jpl_url" : "http://ssd.jpl.nasa.gov/sbdb.cgi?sstr=3092188",
    "absolute_magnitude_h" : 22.9,
    "estimated_diameter" : {
      "kilometers" : {
        "estimated_diameter_min" : 0.0699125232,
        "estimated_diameter_max" : 0.1563291544
      },
      "meters" : {
        "estimated_diameter_min" : 69.9125232246,
        "estimated_diameter_max" : 156.3291544087
      },
      "miles" : {
        "estimated_diameter_min" : 0.0434416145,
        "estimated_diameter_max" : 0.097138403
      },
      "feet" : {
        "estimated_diameter_min" : 229.3718026961,
        "estimated_diameter_max" : 512.8909429502
      }
    },
    "is_potentially_hazardous_asteroid" : false,
    "close_approach_data" : [ {
      "close_approach_date" : "1998-07-30",
      "epoch_date_close_approach" : 901782000000,
      "relative_velocity" : {
        "kilometers_per_second" : "8.6935505595",
        "kilometers_per_hour" : "31296.78201432",
        "miles_per_hour" : "19446.6032466201"
      },
      "miss_distance" : {
        "astronomical" : "0.2032286654",
        "lunar" : "79.0559539795",
        "kilometers" : "30402576",
        "miles" : "18891284"
      },
      "orbiting_body" : "Earth"
    } ],
    "orbital_data" : {
      "orbit_id" : "11",
      "orbit_determination_date" : "2017-04-06 09:17:44",
      "first_observation_date" : "1998-08-23",
      "last_observation_date" : "1998-08-30",
      "data_arc_in_days" : 7,
      "observations_used" : 15,
      "orbit_uncertainty" : "9",
      "minimum_orbit_intersection" : ".191956",
      "jupiter_tisserand_invariant" : "2.994",
      "epoch_osculation" : "2451052.5",
      "eccentricity" : ".5877303969402687",
      "semi_major_axis" : "2.84200646638799",
      "inclination" : "13.52954788222486",
      "ascending_node_longitude" : "328.8295181968772",
      "orbital_period" : "1749.991823273316",
      "perihelion_distance" : "1.171672877790966",
      "perihelion_argument" : "325.4330557171598",
      "aphelion_distance" : "4.512340054985013",
      "perihelion_time" : "2451008.587506362073",
      "mean_anomaly" : "9.033469470779764",
      "mean_motion" : ".205715246901342",
      "equinox" : "J2000",
      "orbit_class" : {
        "orbit_class_type" : "AMO",
        "orbit_class_range" : "1.017 AU < q (perihelion) < 1.3 AU",
        "orbit_class_description" : "Near-Earth asteroid orbits similar to that of 1221 Amor"
      }
    },
    "is_sentry_object" : false
  }, {
    "links" : {
      "self" : "https://api.nasa.gov/neo/rest/v1/neo/3013664?api_key=jqAGvNAwUIBu4fl9FSOjdm3V4F7hIglRzI6pdX9d"
    },
    "neo_reference_id" : "3013664",
    "name" : "(1998 QA62)",
    "designation" : "1998 QA62",
    "nasa_jpl_url" : "http://ssd.jpl.nasa.gov/sbdb.cgi?sstr=3013664",
    "absolute_magnitude_h" : 19.0,
    "estimated_diameter" : {
      "kilometers" : {
        "estimated_diameter_min" : 0.4212646106,
        "estimated_diameter_max" : 0.9419763057
      },
      "meters" : {
        "estimated_diameter_min" : 421.2646105562,
        "estimated_diameter_max" : 941.9763057186
      },
      "miles" : {
        "estimated_diameter_min" : 0.2617616123,
        "estimated_diameter_max" : 0.5853167591
      },
      "feet" : {
        "estimated_diameter_min" : 1382.1017848971,
        "estimated_diameter_max" : 3090.4735428537
      }
    },
    "is_potentially_hazardous_asteroid" : true,
    "close_approach_data" : [ {
      "close_approach_date" : "1998-09-13",
      "epoch_date_close_approach" : 905670000000,
      "relative_velocity" : {
        "kilometers_per_second" : "30.2621353599",
        "kilometers_per_hour" : "108943.6872956184",
        "miles_per_hour" : "67693.3705865469"
      },
      "miss_distance" : {
        "astronomical" : "0.1660987988",
        "lunar" : "64.6124343872",
        "kilometers" : "24848028",
        "miles" : "15439848"
      },
      "orbiting_body" : "Earth"
    } ],
    "orbital_data" : {
      "orbit_id" : "25",
      "orbit_determination_date" : "2017-04-06 09:17:44",
      "first_observation_date" : "1998-08-29",
      "last_observation_date" : "1998-09-20",
      "data_arc_in_days" : 22,
      "observations_used" : 48,
      "orbit_uncertainty" : "9",
      "minimum_orbit_intersection" : ".0233903",
      "jupiter_tisserand_invariant" : "3.288",
      "epoch_osculation" : "2451058.5",
      "eccentricity" : ".7452136532589615",
      "semi_major_axis" : "2.058831236774258",
      "inclination" : "24.8728920647767",
      "ascending_node_longitude" : "181.6061674712147",
      "orbital_period" : "1079.020137873384",
      "perihelion_distance" : ".5245620893740472",
      "perihelion_argument" : "273.1664763297848",
      "aphelion_distance" : "3.593100384174469",
      "perihelion_time" : "2451114.733953724927",
      "mean_anomaly" : "341.23832667213",
      "mean_motion" : ".3336360345503059",
      "equinox" : "J2000",
      "orbit_class" : {
        "orbit_class_type" : "APO",
        "orbit_class_range" : "a (semi-major axis) > 1.0 AU; q (perihelion) < 1.017 AU",
        "orbit_class_description" : "Near-Earth asteroid orbits which cross the Earth’s orbit similar to that of 1862 Apollo"
      }
    },
    "is_sentry_object" : false
  } ]
}